[{"OBJECT_NAME":"OBJECT F","OBJECT_ID":"2023-091F","EPOCH":"2026-03-09T22:26:06.799488","MEAN_MOTION":15.22515502,"ECCENTRICITY":0.0012878,"INCLINATION":97.5231,"RA_OF_ASC_NODE":130.3577,"ARG_OF_PERICENTER":100.6008,"MEAN_ANOMALY":259.6679,"EPHEMERIS_TYPE":0,"CLASSIFICATION_TYPE":"U","NORAD_CAT_ID":57171,"ELEMENT_SET_NO":999,"REV_AT_EPOCH":14905,"BSTAR":0.00043192506,"MEAN_MOTION_DOT":9.968e-5,"MEAN_MOTION_DDOT":0},{"OBJECT_NAME":"GAOFEN-14 02","OBJECT_ID":"2025-242A","EPOCH":"2026-03-09T22:45:15.300864","MEAN_MOTION":15.2569294,"ECCENTRICITY":9.85e-5,"INCLINATION":97.4192,"RA_OF_ASC_NODE":145.3638,"ARG_OF_PERICENTER":335.9045,"MEAN_ANOMALY":24.2147,"EPHEMERIS_TYPE":0,"CLASSIFICATION_TYPE":"U","NORAD_CAT_ID":66175,"ELEMENT_SET_NO":999,"REV_AT_EPOCH":2056,"BSTAR":0.00036713829,"MEAN_MOTION_DOT":9.284e-5,"MEAN_MOTION_DDOT":0}]
